0 BLOCK DM R/B
1 26769U 01019D   13281.99201221 -.00000065  00000-0  00000+0 0  7418
2 26769 016.8120 134.4316 5160785 173.9292 129.2163 01.86698997 84590
0 BLOCK DM R/B
1 26769U 01019D   13285.83816670 -.00000052  00000-0  00000+0 0  7422
2 26769 016.8187 134.0219 5160079 174.6889 194.2546 01.86698366 84662
0 BLOCK DM R/B
1 26769U 01019D   13289.61179764 -.00000034  00000-0  00000+0 0  7439
2 26769 016.8263 133.6227 5159481 175.4271 210.5500 01.86699416 84737
0 BLOCK DM R/B
1 26769U 01019D   13290.11987476 -.00000012  00000-0  10000-3 0  7445
2 26769 016.8271 133.6026 5158498 175.4954 192.0334 01.86696809 84730
0 BLOCK DM R/B
1 26769U 01019D   13295.21417150 -.00000100  00000-0  00000+0 0  7441
2 26769 016.8366 133.0283 5158501 176.5264 015.9787 01.86699200 84839
